{"type":"FeatureCollection","name":"chicago-hydro-south-branch","source":"City of Chicago Hydro dataset","source_url":"https://catalog.data.gov/dataset/hydro","download_url":"https://data.cityofchicago.org/api/v3/views/knfe-65pw/query.geojson?accessType=DOWNLOAD","accessed":"2026-09-08","coordinate_reference_system":"WGS84 longitude/latitude (GeoJSON coordinate order: [lon, lat])","selection":"All downloaded features whose properties.name equals SOUTH BRANCH CHICAGO RIVER; no geometry simplification or reprojection.","feature_count":44,"features":[{"type":"Feature","geometry":{"type":"MultiPolygon","coordinates":[[[[-87.66433144398182,41.84009604336459],[-87.66433130278212,41.84006379743954],[-87.66432818713731,41.840010595454295],[-87.66432822629557,41.84000683604058],[-87.6643223870599,41.839950873926526],[-87.6648395863411,41.83970964578505],[-87.66483864592152,41.83984583814515],[-87.66469061495359,41.83991907161027],[-87.66433144398182,41.84009604336459]]]]},"properties":{":id":"row-kfwr_q5ru.gaij",":version":"rv-ebze~qdkh_9xsz",":created_at":"2015-12-02T17:40:09.464Z",":updated_at":"2015-12-02T17:40:09.464Z","display":"1","name":"SOUTH BRANCH CHICAGO RIVER","edit_date1":"03-23-01","fid_":null,"shape_area":"7238.91845","shape_len":"434.296024099"}},{"type":"Feature","geometry":{"type":"MultiPolygon","coordinates":[[[[-87.66432012422142,41.83990387894433],[-87.66431901658184,41.83987986018139],[-87.66431095128874,41.83981565230681],[-87.6642931642892,41.83976170623622],[-87.66459188094989,41.83962107343172],[-87.66483623832968,41.83950243434368],[-87.66483982427759,41.83955632512372],[-87.66483967065045,41.83965923414109],[-87.6646100266351,41.839774528567254],[-87.66455790086718,41.83980062489023],[-87.66432012422142,41.83990387894433]]]]},"properties":{":id":"row-h8xa.bdjp.pzsq",":version":"rv-8kpg.28fp-2s5k",":created_at":"2015-12-02T17:40:09.464Z",":updated_at":"2015-12-02T17:40:09.464Z","display":"1","name":"SOUTH BRANCH CHICAGO RIVER","edit_date1":"03-23-01","fid_":null,"shape_area":"8398.64405","shape_len":"452.647366302"}},{"type":"Feature","geometry":{"type":"MultiPolygon","coordinates":[[[[-87.66418423020036,41.8394742960323],[-87.66410426632943,41.83931224785692],[-87.66461332872647,41.83901677406584],[-87.66470756601271,41.839172044326425],[-87.66418423020036,41.8394742960323]]]]},"properties":{":id":"row-ktmq-2mcq.6nsd",":version":"rv-yxkx-y8rh~sgu8",":created_at":"2015-12-02T17:40:09.464Z",":updated_at":"2015-12-02T17:40:09.464Z","display":"1","name":"SOUTH BRANCH CHICAGO RIVER","edit_date1":"03-23-01","fid_":null,"shape_area":"10717.88845","shape_len":"480.879643381"}},{"type":"Feature","geometry":{"type":"MultiPolygon","coordinates":[[[[-87.66408899590121,41.839280956594955],[-87.66400813285411,41.839117201664706],[-87.66405383690677,41.839091040725705],[-87.66450101453812,41.838831925059374],[-87.66451273699272,41.838851532484476],[-87.66459618421852,41.83898923160075],[-87.66408899590121,41.839280956594955]]]]},"properties":{":id":"row-xt4p.8v2b-bqci",":version":"rv-9dwk~gte6~8aki",":created_at":"2015-12-02T17:40:09.464Z",":updated_at":"2015-12-02T17:40:09.464Z","display":"1","name":"SOUTH BRANCH CHICAGO RIVER","edit_date1":"03-23-01","fid_":null,"shape_area":"10484.5497","shape_len":"470.741271808"}},{"type":"Feature","geometry":{"type":"MultiPolygon","coordinates":[[[[-87.66390146874261,41.83892206656789],[-87.66376631496885,41.83868595807307],[-87.66418558384785,41.83846372849139],[-87.66418644404501,41.838469222032394],[-87.6643926869105,41.83866252192398],[-87.66390146874261,41.83892206656789]]]]},"properties":{":id":"row-9bni.szhb.ym74",":version":"rv-hd7x.mxht.nbqy",":created_at":"2015-12-02T17:40:09.464Z",":updated_at":"2015-12-02T17:40:09.464Z","display":"1","name":"SOUTH BRANCH CHICAGO RIVER","edit_date1":"03-23-01","fid_":null,"shape_area":"13876.01","shape_len":"489.66726867"}},{"type":"Feature","geometry":{"type":"MultiPolygon","coordinates":[[[[-87.66376631496885,41.83868595807307],[-87.66376134031042,41.83867736696727],[-87.66313437189218,41.837790743084376],[-87.66310383903148,41.837639630340675],[-87.66306416137041,41.837485719954785],[-87.66301990346778,41.83728545962327],[-87.66297164770401,41.83712019276128],[-87.66291479534026,41.83694181299397],[-87.66283044758806,41.83680309198144],[-87.66273635406533,41.8366769925113],[-87.66262392835802,41.83654941378109],[-87.66250646173266,41.836423177630415],[-87.66240852463032,41.836313850343096],[-87.66231305294066,41.83623200747414],[-87.66222407109204,41.83614367109214],[-87.66211191216887,41.83603288831752],[-87.66187938650044,41.83581028651757],[-87.66165481452295,41.835529058345344],[-87.66162312061955,41.83548941045433],[-87.6615824721341,41.8354287988766],[-87.6615997155638,41.835404558082814],[-87.66150528210085,41.83531138678582],[-87.66145520146821,41.835317597757005],[-87.66140401517977,41.83525761053912],[-87.66133946645564,41.835156051816014],[-87.66127752745571,41.83507163254628],[-87.66118578948644,41.834983965286796],[-87.66107767161985,41.83492570294773],[-87.66096572749697,41.83488594190593],[-87.66089337039612,41.83487489800655],[-87.66083750381337,41.83486598137089],[-87.66070738092556,41.834852184170046],[-87.66059909759642,41.83485533709097],[-87.66053323396629,41.83483744288858],[-87.66047564406219,41.83481789567188],[-87.65959631125884,41.834119127756814],[-87.65940286261325,41.83389126156774],[-87.65903058473778,41.83343797408719],[-87.6587596620263,41.833117362247215],[-87.65865770512939,41.83299705848215],[-87.65825092080357,41.83255660099761],[-87.65776831338295,41.83204127157803],[-87.657675457194,41.83192821043115],[-87.65746772454864,41.83166422465781],[-87.6573812903287,41.831551201055404],[-87.65708975259685,41.83123150669737],[-87.65705770159832,41.830919486836926],[-87.65705838759146,41.830725333917],[-87.65706101246607,41.83069208884315],[-87.65766927079375,41.83068469142352],[-87.65766760302894,41.83071418249471],[-87.65767214809811,41.83089258665195],[-87.65769609656697,41.8310577129128],[-87.65773898173548,41.83116672050041],[-87.65791455863194,41.8313934691089],[-87.65823183656182,41.83175379061127],[-87.65852186830084,41.83204295695125],[-87.65893141308102,41.8324405368229],[-87.65927858594574,41.83279589912913],[-87.65957605390501,41.83312215401321],[-87.65963772116612,41.83319010702694],[-87.6599016806851,41.833475329815585],[-87.66040990713446,41.833999719146895],[-87.6605147634692,41.83410291410325],[-87.66059882824655,41.83418024596739],[-87.66068817149716,41.834233596348746],[-87.66076892229103,41.83427350432642],[-87.66085257867431,41.834344329700265],[-87.6608985300654,41.834381975637605],[-87.66100676752708,41.83447078253539],[-87.66117866493641,41.834612761570334],[-87.66129508008461,41.83470916278191],[-87.66137590701132,41.83478749050572],[-87.66150512593319,41.8348877260519],[-87.66161395259604,41.83496245773242],[-87.66173366192623,41.835094882533724],[-87.66189537511949,41.835291713702595],[-87.66200832727868,41.835410706692336],[-87.66210763890152,41.83552174381244],[-87.66219155631234,41.835655687844266],[-87.66227419868103,41.83573608373387],[-87.66240266837218,41.83582053435219],[-87.66252308641795,41.83588539862907],[-87.66256133843162,41.835954228673245],[-87.66261696721703,41.83603172228603],[-87.66270871579411,41.83611870238704],[-87.66281900825348,41.836229116928486],[-87.66293176314284,41.83632513833996],[-87.66303686465541,41.83645130189871],[-87.66317116163002,41.83663869561859],[-87.66330985876631,41.83679834287758],[-87.66341633034027,41.836923471252334],[-87.66345773913997,41.83704514650979],[-87.66351414789047,41.83717824304201],[-87.66355920406512,41.837298567395706],[-87.66360416491732,41.83743156967917],[-87.66365039409631,41.837573168887324],[-87.66373201436443,41.83775202198143],[-87.66385904194445,41.83797540468228],[-87.66398900865836,41.838180939198736],[-87.66410773626691,41.83832057316358],[-87.66417610396408,41.83840500088057],[-87.66418558384785,41.83846372849139],[-87.66376631496885,41.83868595807307]]]]},"properties":{":id":"row-tjy9.f3hs-b3ka",":version":"rv-gewr~7kvy_xkx3",":created_at":"2015-12-02T17:40:09.464Z",":updated_at":"2015-12-02T17:40:09.464Z","display":"0","name":"SOUTH BRANCH CHICAGO RIVER","edit_date1":"03-23-01","fid_":null,"shape_area":"522311.8678","shape_len":"7270.96975864"}},{"type":"Feature","geometry":{"type":"MultiPolygon","coordinates":[[[[-87.65706101246607,41.83069208884315],[-87.65707430549817,41.83052029359879],[-87.65768023628299,41.830514254548824],[-87.65766927079375,41.83068469142352],[-87.65706101246607,41.83069208884315]]]]},"properties":{":id":"row-mnhk.2k6k_bz96",":version":"rv-urhs_ns7b-9u8b",":created_at":"2015-12-02T17:40:09.464Z",":updated_at":"2015-12-02T17:40:09.464Z","display":"1","name":"SOUTH BRANCH CHICAGO RIVER","edit_date1":"03-23-01","fid_":null,"shape_area":"10309.27905","shape_len":"455.843789666"}},{"type":"Feature","geometry":{"type":"MultiPolygon","coordinates":[[[[-87.65707430549817,41.83052029359879],[-87.65708483554137,41.83039137499232],[-87.65711266294805,41.83022962699865],[-87.65714794385869,41.83001509570662],[-87.65718157359947,41.82969594316092],[-87.65720869647276,41.82943023808138],[-87.65725405128072,41.829130007625956],[-87.65726942617506,41.82893113863162],[-87.6572906941737,41.828611556477334],[-87.65729435531756,41.82852513355053],[-87.65727136874519,41.82826876584849],[-87.65726526847497,41.82806392512976],[-87.6572345145253,41.827803038523065],[-87.65721297211114,41.82740946580066],[-87.65720098300363,41.82728658916252],[-87.6571626724574,41.82709184980745],[-87.65717037106202,41.82705759175523],[-87.65714062597989,41.82696241003126],[-87.6570764606877,41.826655003362],[-87.657022297641,41.826352485450265],[-87.65701182211401,41.826301984085845],[-87.65701288390224,41.82624641886783],[-87.65701341445003,41.82619600974921],[-87.65700142226324,41.826115312480326],[-87.65698308167332,41.82602774459504],[-87.65698526948105,41.8259488597078],[-87.65699207645565,41.82587033133067],[-87.65701934644913,41.825806687614325],[-87.6570691923418,41.825776794121715],[-87.65714138990208,41.82575663713832],[-87.65725180621847,41.825723669785596],[-87.65732030664644,41.825709665536536],[-87.65739250030195,41.825689865127],[-87.65739151810247,41.82565418383146],[-87.6573287196193,41.82517150871297],[-87.65732546537005,41.82508674648219],[-87.65730739885326,41.824973109673884],[-87.65727471561051,41.82481202071698],[-87.65725304493078,41.82464690760258],[-87.65723816754688,41.824537049197325],[-87.65725118837938,41.82451997414444],[-87.65729385111382,41.824517124220684],[-87.65731805527278,41.82452860051249],[-87.65734557045694,41.824570612577986],[-87.65736925537553,41.82463145523716],[-87.65739225761139,41.824711860524886],[-87.6576397026051,41.82555855177646],[-87.6576718485159,41.825641755054875],[-87.65768883107243,41.82564221170534],[-87.6583542798256,41.82551234086252],[-87.65837397030585,41.82551347194927],[-87.65839861902955,41.82552459386941],[-87.65844482902159,41.82553688529384],[-87.65849657204024,41.825588287619595],[-87.65854630412983,41.82565650048637],[-87.6585467334301,41.82565754583117],[-87.65860388389676,41.82576353597171],[-87.65859728088404,41.825822828311196],[-87.65854015724659,41.82589247163394],[-87.65849233586502,41.82599167048623],[-87.65841024460433,41.826035096482244],[-87.65824363794937,41.826090731696326],[-87.65809510009007,41.82612723555448],[-87.65791255063783,41.82617418699792],[-87.65780209781549,41.82621058510572],[-87.65773432662112,41.826242431685664],[-87.65772646224843,41.82625061823946],[-87.65771162121818,41.826266310499385],[-87.65770196945051,41.82631189094023],[-87.65770230960955,41.826366778343676],[-87.65769888227574,41.82660550967916],[-87.65771739826985,41.82676374342598],[-87.657746270477,41.82693853113991],[-87.65778052469707,41.82717026665013],[-87.65781495570408,41.82738520825075],[-87.65784432453394,41.827603550400596],[-87.6578615837037,41.827748768869434],[-87.65789621372207,41.82794483102213],[-87.6579194942076,41.828131578233574],[-87.65793151470037,41.828296991138714],[-87.65793710744573,41.82846305230992],[-87.65794581591294,41.8285944991209],[-87.65787987375816,41.82910830503714],[-87.65779466208387,41.82970984157654],[-87.65768240986584,41.83048202218364],[-87.65768023628299,41.830514254548824],[-87.65707430549817,41.83052029359879]]]]},"properties":{":id":"row-g6sd_7dvy_z4zv",":version":"rv-j3gg-q6z2~999c",":created_at":"2015-12-02T17:40:09.464Z",":updated_at":"2015-12-02T17:40:09.464Z","display":"0","name":"SOUTH BRANCH CHICAGO RIVER","edit_date1":"03-23-01","fid_":null,"shape_area":"371195.8497","shape_len":"5065.90739581"}},{"type":"Feature","geometry":{"type":"MultiPolygon","coordinates":[[[[-87.6377386668321,41.883281805660914],[-87.63776482403205,41.8831149220869],[-87.63840802811349,41.88310405210528],[-87.63840880282473,41.883076614372584],[-87.63850382765602,41.88307444511693],[-87.63852195733696,41.883095822685156],[-87.63853756341746,41.883095917106125],[-87.63853842196355,41.883101410784654],[-87.63851275127948,41.883267638863856],[-87.63839567168749,41.88327173284694],[-87.63839435452131,41.88326450751976],[-87.6377386668321,41.883281805660914]]]]},"properties":{":id":"row-7jip.cpzg-t7t3",":version":"rv-vwwg~fp3z-6v3d",":created_at":"2015-12-02T17:40:09.464Z",":updated_at":"2015-12-02T17:40:09.464Z","display":"1","name":"SOUTH BRANCH CHICAGO RIVER","edit_date1":"03-23-01","fid_":null,"shape_area":"12879.6753","shape_len":"562.032206218"}},{"type":"Feature","geometry":{"type":"MultiPolygon","coordinates":[[[[-87.63776482403205,41.8831149220869],[-87.63776580156171,41.88310943952367],[-87.63777422999478,41.88305013261843],[-87.63780815390109,41.88280028274395],[-87.63784237728353,41.88248215791335],[-87.63784705918016,41.88242968891203],[-87.63787062244135,41.8821633107901],[-87.6378809059584,41.88201757146181],[-87.6378819950462,41.88200179866253],[-87.63856371302104,41.881997363007464],[-87.63856714359423,41.88201966701208],[-87.6386024565285,41.88202092345921],[-87.63860084916512,41.882128625256],[-87.63858891528336,41.88212855305984],[-87.63857521127957,41.882417301673556],[-87.63857155061409,41.88250097891967],[-87.63858530955866,41.88250207752863],[-87.63858036814854,41.882578557110705],[-87.63857428791458,41.88263134699079],[-87.6385227562369,41.882937347536554],[-87.63853180630012,41.88303413682715],[-87.63853756341746,41.883095917106125],[-87.63852195733696,41.883095822685156],[-87.63850382765602,41.88307444511693],[-87.63840880282473,41.883076614372584],[-87.63840802811349,41.88310405210528],[-87.63776482403205,41.8831149220869]]]]},"properties":{":id":"row-gyuu-2jzp-qkf6",":version":"rv-izx2-4ik4~cf3w",":created_at":"2015-12-02T17:40:09.464Z",":updated_at":"2015-12-02T17:40:09.464Z","display":"0","name":"SOUTH BRANCH CHICAGO RIVER","edit_date1":"03-23-01","fid_":null,"shape_area":"80511.1753","shape_len":"1234.57446451"}},{"type":"Feature","geometry":{"type":"MultiPolygon","coordinates":[[[[-87.6378819950462,41.88200179866253],[-87.63789288202366,41.88184442739476],[-87.6378952089633,41.88179916148263],[-87.63854888584939,41.881796586838135],[-87.63854833588948,41.881847352000456],[-87.63860525464287,41.881847367040145],[-87.63860262744987,41.88200514509829],[-87.6386024565285,41.88202092345921],[-87.63856714359423,41.88201966701208],[-87.63856371302104,41.881997363007464],[-87.6378819950462,41.88200179866253]]]]},"properties":{":id":"row-sig2~2mxx-66in",":version":"rv-zmwt-km7y-7m3v",":created_at":"2015-12-02T17:40:09.464Z",":updated_at":"2015-12-02T17:40:09.464Z","display":"1","name":"SOUTH BRANCH CHICAGO RIVER","edit_date1":"03-23-01","fid_":null,"shape_area":"14115.2625","shape_len":"552.664002625"}},{"type":"Feature","geometry":{"type":"MultiPolygon","coordinates":[[[[-87.63727597710667,41.88581778210754],[-87.6373266923753,41.885628380130385],[-87.63810116745618,41.88562483873607],[-87.63810039816885,41.885611112874464],[-87.63817795781421,41.885611253090374],[-87.63817895164694,41.88564830635803],[-87.63818625656418,41.88577732989581],[-87.63820770597538,41.88583130173802],[-87.63809753327978,41.885831320855274],[-87.6380963343383,41.88581657702388],[-87.63727597710667,41.88581778210754]]]]},"properties":{":id":"row-iqqk.vass_apu7",":version":"rv-cvcf~8y8k.ie33",":created_at":"2015-12-02T17:40:09.464Z",":updated_at":"2015-12-02T17:40:09.464Z","display":"1","name":"SOUTH BRANCH CHICAGO RIVER","edit_date1":"03-23-01","fid_":null,"shape_area":"16966.5669","shape_len":"647.273369723"}},{"type":"Feature","geometry":{"type":"MultiPolygon","coordinates":[[[[-87.6373266923753,41.885628380130385],[-87.63732958052415,41.885616048551206],[-87.63734353949174,41.8855581747863],[-87.63735163718684,41.88552940933445],[-87.63743573755913,41.88522462219732],[-87.63745484127301,41.88511565438031],[-87.63749989593887,41.884855553790594],[-87.63752634623849,41.8847023933003],[-87.63754494992745,41.88459548060933],[-87.63754564752405,41.88457180203345],[-87.63825498950786,41.88456237644755],[-87.63825122268064,41.884611749992445],[-87.63824077994674,41.8846875101728],[-87.63820147289864,41.88496649879376],[-87.6381844126544,41.885100506588536],[-87.63817336981822,41.88518756939675],[-87.63817627459916,41.88551245022913],[-87.638176331947,41.885551199257854],[-87.63817795781421,41.885611253090374],[-87.63810039816885,41.885611112874464],[-87.63810116745618,41.88562483873607],[-87.6373266923753,41.885628380130385]]]]},"properties":{":id":"row-fvd9~puzw-pf5j",":version":"rv-f4mx_ezb8.u8hr",":created_at":"2015-12-02T17:40:09.464Z",":updated_at":"2015-12-02T17:40:09.464Z","display":"0","name":"SOUTH BRANCH CHICAGO RIVER","edit_date1":"03-23-01","fid_":null,"shape_area":"78535.70375","shape_len":"1203.47846023"}},{"type":"Feature","geometry":{"type":"MultiPolygon","coordinates":[[[[-87.63754564752405,41.88457180203345],[-87.63755295157142,41.88436569887595],[-87.63755648510333,41.88433449081747],[-87.63757393109925,41.88433426720848],[-87.63757376124417,41.88426530339178],[-87.63765367374992,41.884261671161255],[-87.63765683341036,41.88435293633042],[-87.63826969926382,41.884347042528745],[-87.63825498950786,41.88456237644755],[-87.63754564752405,41.88457180203345]]]]},"properties":{":id":"row-fm5q-b8tq.wsk7",":version":"rv-7axz_bvun-txey",":created_at":"2015-12-02T17:40:09.464Z",":updated_at":"2015-12-02T17:40:09.464Z","display":"1","name":"SOUTH BRANCH CHICAGO RIVER","edit_date1":"03-23-01","fid_":null,"shape_area":"16074.2375","shape_len":"610.173216935"}},{"type":"Feature","geometry":{"type":"MultiPolygon","coordinates":[[[[-87.63755648510333,41.88433449081747],[-87.63756155901628,41.884289927635606],[-87.63756714750775,41.88424193726898],[-87.6376151372994,41.88396505961762],[-87.6376317036388,41.88387665818688],[-87.63766486594304,41.8836971112517],[-87.6377091582519,41.88346310363546],[-87.63771598257492,41.88342642701694],[-87.6377386668321,41.883281805660914],[-87.63839435452131,41.88326450751976],[-87.63839567168749,41.88327173284694],[-87.63851275127948,41.883267638863856],[-87.6385077970409,41.8833012258529],[-87.63843054488983,41.88344241618463],[-87.63842956354598,41.88344825548163],[-87.63835667051771,41.88386150882393],[-87.63834003469975,41.883956413793264],[-87.6382778241658,41.88427505536583],[-87.63827294764326,41.88430145289628],[-87.63826969926382,41.884347042528745],[-87.63765683341036,41.88435293633042],[-87.63765367374992,41.884261671161255],[-87.63757376124417,41.88426530339178],[-87.63757393109925,41.88433426720848],[-87.63755648510333,41.88433449081747]]]]},"properties":{":id":"row-uqms_6gww~mnry",":version":"rv-yktn_biq3~88xc",":created_at":"2015-12-02T17:40:09.464Z",":updated_at":"2015-12-02T17:40:09.464Z","display":"0","name":"SOUTH BRANCH CHICAGO RIVER","edit_date1":"03-23-01","fid_":null,"shape_area":"76719.84285","shape_len":"1252.4692037"}},{"type":"Feature","geometry":{"type":"MultiPolygon","coordinates":[[[[-87.6378952089633,41.88179916148263],[-87.6379055724331,41.881605398379165],[-87.63790967018967,41.881525510844526],[-87.6379103676029,41.881501832252546],[-87.6379178603518,41.88119350705476],[-87.6379220450382,41.88101754409292],[-87.63792693732995,41.8808203449688],[-87.63792783508624,41.88078157424977],[-87.63792924625383,41.8806920655833],[-87.63854672241044,41.88068446929085],[-87.63854654018718,41.8807012903993],[-87.63864937160585,41.88070018361713],[-87.63865181922927,41.88076916125488],[-87.63865579415155,41.88087003623596],[-87.63865091716661,41.881021955474985],[-87.63864600226879,41.88118076253038],[-87.63864222511162,41.88131589364723],[-87.63862872857045,41.881334664951375],[-87.63862701371167,41.88136415518884],[-87.63863690342814,41.881383424715395],[-87.63863178604917,41.88151684628919],[-87.63861446504575,41.881549672421045],[-87.63861262384388,41.88159082492477],[-87.63861399331802,41.88159322070064],[-87.63862605919687,41.881621778932704],[-87.63861756350576,41.881728066945385],[-87.6385501063885,41.881727988154715],[-87.63854888584939,41.881796586838135],[-87.6378952089633,41.88179916148263]]]]},"properties":{":id":"row-2zsx_ueg4.pwmr",":version":"rv-ertn~5hus.aid9",":created_at":"2015-12-02T17:40:09.464Z",":updated_at":"2015-12-02T17:40:09.464Z","display":"0","name":"SOUTH BRANCH CHICAGO RIVER","edit_date1":"03-23-01","fid_":null,"shape_area":"79070.14935","shape_len":"1204.91726376"}},{"type":"Feature","geometry":{"type":"MultiPolygon","coordinates":[[[[-87.63792924625383,41.8806920655833],[-87.6379324341687,41.880526744233755],[-87.63805637113448,41.88052645184387],[-87.6385443752061,41.880518099063735],[-87.63854431359286,41.88048310958881],[-87.63864113335903,41.88048438137642],[-87.63864937160585,41.88070018361713],[-87.63854654018718,41.8807012903993],[-87.63854672241044,41.88068446929085],[-87.63792924625383,41.8806920655833]]]]},"properties":{":id":"row-i7vg_vv3r_84nr",":version":"rv-jrv9.dg5t_5ird",":created_at":"2015-12-02T17:40:09.464Z",":updated_at":"2015-12-02T17:40:09.464Z","display":"1","name":"SOUTH BRANCH CHICAGO RIVER","edit_date1":"03-23-01","fid_":null,"shape_area":"12222.0203","shape_len":"547.049484405"}},{"type":"Feature","geometry":{"type":"MultiPolygon","coordinates":[[[[-87.6379324341687,41.880526744233755],[-87.63793276144678,41.88049655953968],[-87.63791621523801,41.88036986740109],[-87.6378628318186,41.87995927973121],[-87.63780901200043,41.879548360056226],[-87.63779755349837,41.8794604748583],[-87.63779562305349,41.87942854761153],[-87.63842181510111,41.879418617266886],[-87.63842507811708,41.879456370364025],[-87.63852058978092,41.87945283190906],[-87.63853529577298,41.87953593425767],[-87.63854870311725,41.8796101099543],[-87.63853828962966,41.87963921826272],[-87.63855766538056,41.87975903939622],[-87.63857306614561,41.87977801296538],[-87.63858812191317,41.87991358735649],[-87.63859158568378,41.879932818016236],[-87.63859371360493,41.879946552107285],[-87.6386126193382,41.880065711763585],[-87.63862770110732,41.88019889880849],[-87.63863727514416,41.880332052530825],[-87.63863791817904,41.88035744067204],[-87.63864041601674,41.880465853394604],[-87.63864113335903,41.88048438137642],[-87.63854431359286,41.88048310958881],[-87.6385443752061,41.880518099063735],[-87.63805637113448,41.88052645184387],[-87.6379324341687,41.880526744233755]]]]},"properties":{":id":"row-5cq5-224m_8jum",":version":"rv-mtg6.abps.znwj",":created_at":"2015-12-02T17:40:09.464Z",":updated_at":"2015-12-02T17:40:09.464Z","display":"0","name":"SOUTH BRANCH CHICAGO RIVER","edit_date1":"03-23-01","fid_":null,"shape_area":"78671.01155","shape_len":"1197.31379878"}},{"type":"Feature","geometry":{"type":"MultiPolygon","coordinates":[[[[-87.63779562305349,41.87942854761153],[-87.63778559773733,41.87925252597915],[-87.63839108611113,41.879245214646055],[-87.63841359423532,41.879245350849274],[-87.63842386637471,41.879314019104406],[-87.63849762056303,41.87932577165981],[-87.63852058978092,41.87945283190906],[-87.63842507811708,41.879456370364025],[-87.63842181510111,41.879418617266886],[-87.63779562305349,41.87942854761153]]]]},"properties":{":id":"row-ajx9-ydxk.q8e7",":version":"rv-275q.wukm_y5vk",":created_at":"2015-12-02T17:40:09.464Z",":updated_at":"2015-12-02T17:40:09.464Z","display":"1","name":"SOUTH BRANCH CHICAGO RIVER","edit_date1":"03-23-01","fid_":null,"shape_area":"12096.44845","shape_len":"538.093322387"}},{"type":"Feature","geometry":{"type":"MultiPolygon","coordinates":[[[[-87.63778559773733,41.87925252597915],[-87.63778180787554,41.879178737750095],[-87.637724014319,41.87917495739281],[-87.63771200155485,41.87913819408773],[-87.63760033451942,41.878728625278626],[-87.63743722029093,41.87831943065349],[-87.63738966984143,41.87817712786101],[-87.63739074408532,41.878162727088274],[-87.63805638752613,41.87815372384855],[-87.63805962052788,41.87819422102652],[-87.63812615242051,41.87819462380812],[-87.63812630499618,41.87818054675814],[-87.63815432778657,41.87818003033439],[-87.63818401934856,41.87827625861877],[-87.63819426683833,41.878306507335715],[-87.63832936642397,41.8787158881065],[-87.63840400978061,41.87894375532496],[-87.63845987439416,41.879125570218534],[-87.6384891262185,41.87922179574893],[-87.63840972011313,41.8792199431501],[-87.63841359423532,41.879245350849274],[-87.63839108611113,41.879245214646055],[-87.63778559773733,41.87925252597915]]]]},"properties":{":id":"row-fa7n~jvkd~yizp",":version":"rv-vr7q_zqzh-xgyb",":created_at":"2015-12-02T17:40:09.464Z",":updated_at":"2015-12-02T17:40:09.464Z","display":"0","name":"SOUTH BRANCH CHICAGO RIVER","edit_date1":"03-23-01","fid_":null,"shape_area":"80131.5322","shape_len":"1242.53607837"}},{"type":"Feature","geometry":{"type":"MultiPolygon","coordinates":[[[[-87.63739074408532,41.878162727088274],[-87.63740347122207,41.87800501016344],[-87.63739905662761,41.87798884725392],[-87.63745001323396,41.877986411795234],[-87.63813273285287,41.87797032166218],[-87.6381503309964,41.878165955608814],[-87.63815432778657,41.87818003033439],[-87.63812630499618,41.87818054675814],[-87.63812615242051,41.87819462380812],[-87.63805962052788,41.87819422102652],[-87.63805638752613,41.87815372384855],[-87.63739074408532,41.878162727088274]]]]},"properties":{":id":"row-vhwh-4ivi-tga5",":version":"rv-g4st.md2e~avmx",":created_at":"2015-12-02T17:40:09.464Z",":updated_at":"2015-12-02T17:40:09.464Z","display":"1","name":"SOUTH BRANCH CHICAGO RIVER","edit_date1":"03-23-01","fid_":null,"shape_area":"13529.86185","shape_len":"567.197134574"}},{"type":"Feature","geometry":{"type":"MultiPolygon","coordinates":[[[[-87.63739905662761,41.87798884725392],[-87.63738585692168,41.877936297309404],[-87.63733262081412,41.877935617928394],[-87.63733290368148,41.877909549320485],[-87.63733378482455,41.87765914234901],[-87.63730707101013,41.87749844213565],[-87.63730532806322,41.8774898695287],[-87.63727958538895,41.87749347311964],[-87.63718252527657,41.877088465447734],[-87.63714170695651,41.876918074823436],[-87.63713591573257,41.8769002021237],[-87.63775431796549,41.876888499279296],[-87.63775272544815,41.87690668397766],[-87.63789737894894,41.87690171479602],[-87.63790007676648,41.87690689031353],[-87.63803504315003,41.87707406366618],[-87.63806850595725,41.877161066725286],[-87.63808842165498,41.87748500818008],[-87.63809035249771,41.877516907992714],[-87.63812619629202,41.87789583073913],[-87.63812704730387,41.877902010441005],[-87.63813273285287,41.87797032166218],[-87.63745001323396,41.877986411795234],[-87.63739905662761,41.87798884725392]]]]},"properties":{":id":"row-ymhi_ae52~jf3k",":version":"rv-8aw9-e33s-s33u",":created_at":"2015-12-02T17:40:09.464Z",":updated_at":"2015-12-02T17:40:09.464Z","display":"0","name":"SOUTH BRANCH CHICAGO RIVER","edit_date1":"03-23-01","fid_":null,"shape_area":"86791.77095","shape_len":"1239.84845715"}},{"type":"Feature","geometry":{"type":"MultiPolygon","coordinates":[[[[-87.63713591573257,41.8769002021237],[-87.63711105191173,41.87682285577989],[-87.6370749148744,41.876728646303775],[-87.6370654853932,41.876707677987476],[-87.63775544579515,41.876699839266195],[-87.63775743784059,41.87668544404519],[-87.63778815825589,41.87668667292316],[-87.63789737894894,41.87690171479602],[-87.63775272544815,41.87690668397766],[-87.63775431796549,41.876888499279296],[-87.63713591573257,41.8769002021237]]]]},"properties":{":id":"row-8xca.2tf7_frut",":version":"rv-zz68~45ja~q9pa",":created_at":"2015-12-02T17:40:09.464Z",":updated_at":"2015-12-02T17:40:09.464Z","display":"1","name":"SOUTH BRANCH CHICAGO RIVER","edit_date1":"03-23-01","fid_":null,"shape_area":"14281.2597","shape_len":"572.718080009"}},{"type":"Feature","geometry":{"type":"MultiPolygon","coordinates":[[[[-87.6370654853932,41.876707677987476],[-87.6370650561135,41.87670663257172],[-87.63705294379167,41.876679116685416],[-87.63703321885971,41.876635775232614],[-87.63698603344963,41.876544599734224],[-87.63695403638802,41.87648847799865],[-87.63682100946625,41.876271561962355],[-87.63677681779778,41.876198928185424],[-87.636526172166,41.87586466790991],[-87.63651936642805,41.875855707818076],[-87.63645823525292,41.87578088550419],[-87.63716827190885,41.87577970342286],[-87.63720178751707,41.87582107026988],[-87.6373266219692,41.87582182690725],[-87.63735250276389,41.87584942621136],[-87.63735340935115,41.87585047451886],[-87.6375940840593,41.876258081150795],[-87.63776716451946,41.876550348887086],[-87.6377819485896,41.876666739536915],[-87.63778323610387,41.87667668150206],[-87.63778815825589,41.87668667292316],[-87.63775743784059,41.87668544404519],[-87.63775544579515,41.876699839266195],[-87.6370654853932,41.876707677987476]]]]},"properties":{":id":"row-zfnh-swk6_cmjg",":version":"rv-ig4m-35mn_6e2h",":created_at":"2015-12-02T17:40:09.464Z",":updated_at":"2015-12-02T17:40:09.464Z","display":"0","name":"SOUTH BRANCH CHICAGO RIVER","edit_date1":"03-23-01","fid_":null,"shape_area":"71859.76345","shape_len":"1165.13043306"}},{"type":"Feature","geometry":{"type":"MultiPolygon","coordinates":[[[[-87.6344107227545,41.86743795083295],[-87.6344184814969,41.867275044530274],[-87.6344196718618,41.86725002422093],[-87.63442200446751,41.86720440155041],[-87.63441709884488,41.86718963507737],[-87.63503354592189,41.867180349765896],[-87.63503813868566,41.86718002093902],[-87.635040723953,41.86723596446021],[-87.63504301083545,41.867278843539744],[-87.63505050499083,41.86743360988107],[-87.6344107227545,41.86743795083295]]]]},"properties":{":id":"row-jqc7~hxuk~zd98",":version":"rv-dhr6-hrza-xqnv",":created_at":"2015-12-02T17:40:09.464Z",":updated_at":"2015-12-02T17:40:09.464Z","display":"1","name":"SOUTH BRANCH CHICAGO RIVER","edit_date1":"03-23-01","fid_":null,"shape_area":"15633.70905","shape_len":"526.659498853"}},{"type":"Feature","geometry":{"type":"MultiPolygon","coordinates":[[[[-87.63645823525292,41.87578088550419],[-87.63621272004771,41.875481644787975],[-87.63693477538584,41.87547230436477],[-87.63693708848204,41.87547231839133],[-87.6369976805953,41.875471670433065],[-87.6373266219692,41.87582182690725],[-87.63720178751707,41.87582107026988],[-87.63716827190885,41.87577970342286],[-87.63645823525292,41.87578088550419]]]]},"properties":{":id":"row-mrgg-eyv2.qqgp",":version":"rv-2hxt.tp8u.7qr8",":created_at":"2015-12-02T17:40:09.464Z",":updated_at":"2015-12-02T17:40:09.464Z","display":"1","name":"SOUTH BRANCH CHICAGO RIVER","edit_date1":"03-23-01","fid_":null,"shape_area":"24966.6147","shape_len":"742.646263995"}},{"type":"Feature","geometry":{"type":"MultiPolygon","coordinates":[[[[-87.63621272004771,41.875481644787975],[-87.63619369385361,41.875458559957075],[-87.63617329513838,41.87543338116427],[-87.63608886732683,41.87543116717204],[-87.63609259432123,41.8753855529963],[-87.63594696546018,41.875227231374936],[-87.63587131650942,41.87505251236555],[-87.63569400996069,41.87464355815135],[-87.63568237590557,41.87461604501755],[-87.63568036086441,41.874548112689936],[-87.6363633693833,41.87454265499972],[-87.63636422018503,41.874548834716634],[-87.6364413533041,41.87463094412404],[-87.6366342761641,41.87503930586976],[-87.63665132118446,41.875075770529996],[-87.63672932849123,41.87516200140979],[-87.63665069325691,41.87521811074589],[-87.63690615918469,41.87544641725181],[-87.63693477538584,41.87547230436477],[-87.63621272004771,41.875481644787975]]]]},"properties":{":id":"row-am3x-cnu3.7qrh",":version":"rv-ffgk_ifds~8qyp",":created_at":"2015-12-02T17:40:09.464Z",":updated_at":"2015-12-02T17:40:09.464Z","display":"0","name":"SOUTH BRANCH CHICAGO RIVER","edit_date1":"03-23-01","fid_":null,"shape_area":"69625.54125","shape_len":"1170.79879961"}},{"type":"Feature","geometry":{"type":"MultiPolygon","coordinates":[[[[-87.63568036086441,41.874548112689936],[-87.63567506950488,41.87435941363437],[-87.63632690538996,41.87435033647438],[-87.6363633693833,41.87454265499972],[-87.63568036086441,41.874548112689936]]]]},"properties":{":id":"row-wbqc.j94d.7nam",":version":"rv-hf22~ev7g.n9nn",":created_at":"2015-12-02T17:40:09.464Z",":updated_at":"2015-12-02T17:40:09.464Z","display":"1","name":"SOUTH BRANCH CHICAGO RIVER","edit_date1":"03-23-01","fid_":null,"shape_area":"12634.6875","shape_len":"503.15867637"}},{"type":"Feature","geometry":{"type":"MultiPolygon","coordinates":[[[[-87.63567506950488,41.87435941363437],[-87.63567436052479,41.87434019960517],[-87.63558672204351,41.87433623686585],[-87.6355745429571,41.874233939703295],[-87.63556904341206,41.874189312290106],[-87.63556176722265,41.87414261589701],[-87.63554929778778,41.8740636430567],[-87.63549281465002,41.873814945568114],[-87.63543153009718,41.87354187739801],[-87.63542707186168,41.87348592256331],[-87.63542144500177,41.873456387719266],[-87.63540973663962,41.87343573471725],[-87.63537743258802,41.87340809592934],[-87.63537378709957,41.87340568627941],[-87.63535555309326,41.8733942417223],[-87.63534376265993,41.87338113489238],[-87.63529107149522,41.873205868919676],[-87.6353017877023,41.87318946857568],[-87.63531612249638,41.87318132296424],[-87.63532816278517,41.87317146197232],[-87.63533790528466,41.873160187447795],[-87.63534538253005,41.87314788378349],[-87.63535011365161,41.87313487736685],[-87.63535165419626,41.873121522248994],[-87.63535040832338,41.87310779344398],[-87.6353477481872,41.87309918778451],[-87.63533477891701,41.873025700362824],[-87.63532081675984,41.87300297546712],[-87.63531307870147,41.872995381756766],[-87.6352708793965,41.872952589436274],[-87.63525316433994,41.87293395809036],[-87.63522358017843,41.87282848151145],[-87.63523638227764,41.87278909706457],[-87.63524599380492,41.8727493639121],[-87.63525241476601,41.87270928205488],[-87.63525386665071,41.87270070138784],[-87.63522391369875,41.87258526094723],[-87.63519573295153,41.872475676515904],[-87.63511464231125,41.87221104976417],[-87.6351135571749,41.872182557882844],[-87.63518103347126,41.8721833248557],[-87.63518457795199,41.87219500945302],[-87.63521121047691,41.87219379922968],[-87.63521186753071,41.87217390743296],[-87.63521595683069,41.87209503518886],[-87.63520925259718,41.87207680007639],[-87.6351840227127,41.8720773327645],[-87.63517654556408,41.872089636421286],[-87.63513065323524,41.87208935742244],[-87.63510642794688,41.87195372666042],[-87.63462593949605,41.871992654135084],[-87.63459202370396,41.87177598157289],[-87.63452765006855,41.87136568167182],[-87.63446327752024,41.87095535427108],[-87.63443112275182,41.870749010712025],[-87.63486068158413,41.87070634398096],[-87.63483317083714,41.87053534723742],[-87.63479707594834,41.87030974262226],[-87.63476560308534,41.870125000512],[-87.63474057736556,41.869978717078034],[-87.6345818698615,41.8699708909351],[-87.63457178093286,41.86971734335447],[-87.6345710125456,41.86970361743853],[-87.63469811866986,41.86970370467596],[-87.63463725701482,41.86930816267019],[-87.63463686129033,41.869304043890146],[-87.6346156642608,41.86914337639818],[-87.63460705399264,41.86909118329246],[-87.63460695774118,41.86905619353911],[-87.63458211206974,41.86889344564912],[-87.63451865923288,41.868483123703854],[-87.63445568412375,41.86807283204543],[-87.63439223283648,41.86766250998421],[-87.63437035789406,41.8675203619595],[-87.63440902070977,41.86746949934049],[-87.6344107227545,41.86743795083295],[-87.63505050499083,41.86743360988107],[-87.63505320552471,41.867482336724926],[-87.63510066137849,41.867507323498906],[-87.63512253854948,41.86764604108938],[-87.63518691258517,41.86805634092221],[-87.63525128711045,41.86846666813668],[-87.63529590416213,41.868752670508485],[-87.6353147449218,41.86887696227313],[-87.63537592346886,41.869287599247],[-87.6354247050128,41.86961275981954],[-87.63542362719913,41.869667967544174],[-87.63542513448974,41.86969816343437],[-87.63543507696095,41.86992498107949],[-87.63545803369473,41.869924077769205],[-87.63548491937192,41.87010879182505],[-87.63554426442848,41.87051941748437],[-87.63556859108213,41.87068627834346],[-87.63560180819677,41.87075475704213],[-87.63562744811956,41.87092917254212],[-87.63568863044883,41.8713398092333],[-87.63574934012708,41.871750086240894],[-87.63575233281915,41.87176862808813],[-87.63579742014618,41.8720556757798],[-87.63581760530451,41.87205648444072],[-87.63581564281635,41.87206813557151],[-87.63580690491864,41.87206808250019],[-87.63580545742951,41.87216069204787],[-87.63580531183554,41.87217408308926],[-87.63586403918642,41.87217581189296],[-87.63594924190775,41.872569085945386],[-87.63603797096151,41.872979203552845],[-87.63607774294417,41.87316092206264],[-87.63612666797917,41.873388991560454],[-87.63621540310847,41.87379875226122],[-87.63627874006417,41.87409277106218],[-87.63628872511977,41.874147030529706],[-87.6363026022408,41.87422156615516],[-87.636311266699,41.874268956988985],[-87.63632690538996,41.87435033647438],[-87.63567506950488,41.87435941363437]]]]},"properties":{":id":"row-8ni7_vzft~svze",":version":"rv-m3ab_jbwj-4hdv",":created_at":"2015-12-02T17:40:09.464Z",":updated_at":"2015-12-02T17:40:09.464Z","display":"0","name":"SOUTH BRANCH CHICAGO RIVER","edit_date1":"03-23-01","fid_":null,"shape_area":"558518.881","shape_len":"5905.64179548"}},{"type":"Feature","geometry":{"type":"MultiPolygon","coordinates":[[[[-87.63415912883168,41.86087697406832],[-87.63415823041737,41.86083476199849],[-87.63415013003983,41.86052359679137],[-87.63414663663542,41.86042305355534],[-87.63414630824978,41.860412760609236],[-87.63413778475326,41.86018424969238],[-87.63412419150306,41.86016838748329],[-87.63410329781048,41.86014872119943],[-87.6340986546606,41.8601099166406],[-87.63408568063123,41.86008102299668],[-87.63406212005809,41.86005343702019],[-87.63405392437176,41.86004756930351],[-87.6340480197662,41.86004031596728],[-87.63404443876234,41.86003206140525],[-87.63404409155886,41.860023497222805],[-87.63404646096852,41.860014922138745],[-87.63404787825544,41.86001287257878],[-87.63405204922755,41.86000740946943],[-87.63405439166192,41.86000467947918],[-87.63406687760033,41.85999413524394],[-87.6340770990655,41.85998253440401],[-87.63408457886813,41.859969874054656],[-87.6340893167105,41.8599561816371],[-87.63409130153289,41.859942472457874],[-87.63409009285424,41.859928743835276],[-87.63408963061227,41.859927368894596],[-87.6340908103418,41.85986288613756],[-87.63408831502532,41.85983921548613],[-87.63410149515059,41.85980875219802],[-87.63410940763704,41.85979680798667],[-87.63411413440002,41.85978413087375],[-87.63411611532504,41.85977077842279],[-87.63411532111755,41.859759439823385],[-87.63411246663006,41.859600255779036],[-87.63410572837401,41.85925169462703],[-87.63410549827273,41.85918857540543],[-87.63410524889908,41.85895874268652],[-87.63426506446689,41.85890277231886],[-87.63427845610248,41.858896679261335],[-87.63428999424308,41.858888873483664],[-87.63429974901364,41.85887965728111],[-87.6343072059285,41.85886908240775],[-87.63431098503972,41.858859143769905],[-87.6343376207761,41.85877286190589],[-87.63434188876263,41.858758480551906],[-87.63456191798008,41.85835745704486],[-87.63458020033443,41.85832359441952],[-87.63466878907732,41.85815055932994],[-87.63477054836243,41.857951204555235],[-87.63481511491605,41.85781939468693],[-87.63484032426508,41.85782023407206],[-87.6355014369503,41.857830427513655],[-87.63549675221032,41.857879795617286],[-87.63556856305556,41.857902542709],[-87.63556156955201,41.85803935615475],[-87.63556916087137,41.858056910614685],[-87.63555661994374,41.8581130916227],[-87.6355078472552,41.85833815339758],[-87.63550304271382,41.85835802004338],[-87.63543229118068,41.85865981476785],[-87.63535464097768,41.85875539175411],[-87.63501465550887,41.85917283902814],[-87.63495840142096,41.85924178936202],[-87.63495051187219,41.85924827270915],[-87.63492968126377,41.85926666974688],[-87.63491111151887,41.85928645265621],[-87.6348952837053,41.85930726761084],[-87.63488172034104,41.85932913915064],[-87.63487093531973,41.859352070401705],[-87.63486334018032,41.85937535036185],[-87.63485801726111,41.85939897345076],[-87.63485592063789,41.85942297291372],[-87.63486055616225,41.859587326974506],[-87.63487259881228,41.85999868138854],[-87.63487988233558,41.860257042189886],[-87.63488372001927,41.86041038692147],[-87.63488364536443,41.860417247098866],[-87.63489392364768,41.860822086844195],[-87.6348952439008,41.86086943322636],[-87.63415912883168,41.86087697406832]]]]},"properties":{":id":"row-4zqr.jfmv.e4qf",":version":"rv-hqvf~iiva_e4jy",":created_at":"2015-12-02T17:40:09.464Z",":updated_at":"2015-12-02T17:40:09.464Z","display":"0","name":"SOUTH BRANCH CHICAGO RIVER","edit_date1":"03-23-01","fid_":null,"shape_area":"253694.61","shape_len":"2738.8748276"}},{"type":"Feature","geometry":{"type":"MultiPolygon","coordinates":[[[[-87.63481511491605,41.85781939468693],[-87.63484496531282,41.857731074049404],[-87.63484735242032,41.85772422793269],[-87.6348507031486,41.85762545517232],[-87.63551970340853,41.85762576227673],[-87.63551244104924,41.85770288657073],[-87.6355014369503,41.857830427513655],[-87.63484032426508,41.85782023407206],[-87.63481511491605,41.85781939468693]]]]},"properties":{":id":"row-86ah~uwpj.w44i",":version":"rv-6uj8~x2rx-k8s8",":created_at":"2015-12-02T17:40:09.464Z",":updated_at":"2015-12-02T17:40:09.464Z","display":"1","name":"SOUTH BRANCH CHICAGO RIVER","edit_date1":"03-23-01","fid_":null,"shape_area":"13292.31","shape_len":"515.801775059"}},{"type":"Feature","geometry":{"type":"MultiPolygon","coordinates":[[[[-87.6348507031486,41.85762545517232],[-87.6348552918795,41.85750061952701],[-87.63484860827212,41.857355819482386],[-87.63486278696243,41.857317842909545],[-87.6349020074672,41.8572117415827],[-87.63496422416067,41.8571040511962],[-87.63496212807634,41.85704366485932],[-87.63498859049325,41.85697316122259],[-87.63506715235475,41.85692185481556],[-87.6350894590367,41.85689592001909],[-87.6351368476175,41.856842009093256],[-87.63520083549085,41.856780652350665],[-87.63525427844199,41.856716816534124],[-87.63526964294665,41.8566541488247],[-87.63529326634372,41.85659150386661],[-87.63532587888335,41.85659000063857],[-87.63534187386585,41.856553736477245],[-87.63534764815512,41.85652907328017],[-87.63538762492068,41.85652209883809],[-87.63544925060687,41.85646863105058],[-87.63545944142058,41.856459774147545],[-87.63557511373095,41.85637128869015],[-87.63566891637737,41.856309069996335],[-87.63586180902743,41.85612363226261],[-87.63587973572236,41.85607846092622],[-87.63591781627946,41.856036512978605],[-87.6359331541901,41.85602014058738],[-87.6359949812138,41.85598860031883],[-87.63604641578736,41.85594055883577],[-87.63611361782695,41.85592107097169],[-87.63616506690845,41.85587506027132],[-87.63640631420425,41.85567139139874],[-87.63649290735081,41.855600236887085],[-87.63686837430406,41.85528966930253],[-87.63690928128543,41.855240850078076],[-87.63694583888815,41.855213985950265],[-87.63694028097026,41.85606467128423],[-87.63686209511492,41.85612215583744],[-87.63675388121256,41.85620006756923],[-87.63648347509549,41.85642515751837],[-87.63636216023305,41.85652631554805],[-87.63600709212862,41.85685723040739],[-87.63599922478106,41.856865086091794],[-87.63580865894278,41.85717402959959],[-87.63574601445795,41.857280675029415],[-87.63561276877863,41.85750659589564],[-87.63562191190145,41.85759413825687],[-87.63552184834158,41.857597289953375],[-87.63551970340853,41.85762576227673],[-87.6348507031486,41.85762545517232]]]]},"properties":{":id":"row-ueiz-bkph~68tw",":version":"rv-y9fe.dais_tye6",":created_at":"2015-12-02T17:40:09.464Z",":updated_at":"2015-12-02T17:40:09.464Z","display":"0","name":"SOUTH BRANCH CHICAGO RIVER","edit_date1":"03-23-01","fid_":null,"shape_area":"183212.1722","shape_len":"2304.07860719"}},{"type":"Feature","geometry":{"type":"MultiPolygon","coordinates":[[[[-87.63694583888815,41.855213985950265],[-87.63695139304386,41.85520954649149],[-87.63696962877997,41.85517639668778],[-87.63697064312862,41.85516748400869],[-87.6369737084981,41.85513868791526],[-87.6370551470675,41.855119615124316],[-87.63706612855582,41.85512242595405],[-87.63706421295824,41.85597587764582],[-87.63704523821447,41.85598915457477],[-87.63701287605772,41.856011598473806],[-87.63694028097026,41.85606467128423],[-87.63694583888815,41.855213985950265]]]]},"properties":{":id":"row-ebbz~53if-dmyg",":version":"rv-uggt-pf6m~d8ym",":created_at":"2015-12-02T17:40:09.464Z",":updated_at":"2015-12-02T17:40:09.464Z","display":"1","name":"SOUTH BRANCH CHICAGO RIVER","edit_date1":"03-23-01","fid_":null,"shape_area":"10592.43405","shape_len":"723.252402562"}},{"type":"Feature","geometry":{"type":"MultiPolygon","coordinates":[[[[-87.63706612855582,41.85512242595405],[-87.63709310512654,41.85512945013124],[-87.6371478474212,41.85511811888956],[-87.63758304030944,41.85496913595814],[-87.63774521475348,41.854907686468145],[-87.63795072032595,41.854827646077524],[-87.63814220698097,41.85473034142241],[-87.63817093484502,41.85470444488182],[-87.63822511955497,41.85465641905414],[-87.63827873390106,41.854620382145264],[-87.63834310326682,41.85460806577557],[-87.6384377358488,41.854556854280176],[-87.63849722176177,41.85452771343264],[-87.6385341186545,41.85451009898829],[-87.63864045495438,41.855073314599046],[-87.63860130123327,41.855085756223836],[-87.63858922389008,41.85509940444373],[-87.63857762725989,41.85511272625963],[-87.63857954653788,41.855145668933304],[-87.63852793434185,41.8551662679341],[-87.63846800395967,41.85519233253846],[-87.63840857326065,41.855216314500794],[-87.63837656686286,41.85524666439608],[-87.6382741444725,41.85529851475455],[-87.63821094630501,41.8553314200855],[-87.63818084212984,41.855355579421776],[-87.63817793329805,41.85536996915509],[-87.63816696084137,41.85541038050489],[-87.63793016386752,41.85553929909164],[-87.63767770659489,41.85567704116001],[-87.63764036700968,41.855650744563064],[-87.6375841770527,41.8556703000331],[-87.63747480441525,41.85572658070439],[-87.63734431110755,41.85578753572794],[-87.63723244664082,41.85586369691398],[-87.63718626443716,41.855891216298176],[-87.63706421295824,41.85597587764582],[-87.63706612855582,41.85512242595405]]]]},"properties":{":id":"row-7phz~q3qb~ydma",":version":"rv-kwsu.7bi2~kw6u",":created_at":"2015-12-02T17:40:09.464Z",":updated_at":"2015-12-02T17:40:09.464Z","display":"0","name":"SOUTH BRANCH CHICAGO RIVER","edit_date1":"03-23-01","fid_":null,"shape_area":"107473.25095","shape_len":"1550.00603958"}},{"type":"Feature","geometry":{"type":"MultiPolygon","coordinates":[[[[-87.6385341186545,41.85451009898829],[-87.63876378762698,41.8544017179362],[-87.63887998192145,41.8549869469983],[-87.63882689711295,41.85501475462171],[-87.63864045495438,41.855073314599046],[-87.6385341186545,41.85451009898829]]]]},"properties":{":id":"row-39hc~hzkm~xj6a",":version":"rv-dr3a-h2g7~iaiv",":created_at":"2015-12-02T17:40:09.464Z",":updated_at":"2015-12-02T17:40:09.464Z","display":"1","name":"SOUTH BRANCH CHICAGO RIVER","edit_date1":"03-23-01","fid_":null,"shape_area":"14552.85","shape_len":"569.623082554"}},{"type":"Feature","geometry":{"type":"MultiPolygon","coordinates":[[[[-87.63441709884488,41.86718963507737],[-87.63440157559639,41.867141845552574],[-87.63434873320276,41.867105848707425],[-87.63434612217665,41.86683999737392],[-87.63434573849649,41.86683140553781],[-87.6343423965951,41.866760720772945],[-87.63433028726455,41.86673320457516],[-87.63431761037076,41.86671734798206],[-87.63429924043275,41.86667813061434],[-87.63429680459568,41.866648971857586],[-87.6342783798566,41.86657097790567],[-87.6342740038678,41.866551412212026],[-87.63427934712115,41.86652263011496],[-87.63428648787831,41.86650071958276],[-87.63430791038287,41.86647203535491],[-87.63433686532782,41.86646636633837],[-87.63432059460804,41.8658536135372],[-87.63429037587923,41.86584725504347],[-87.63427816145426,41.865832773383794],[-87.63426456058966,41.865773689221385],[-87.63426105398337,41.86575857450159],[-87.63424810974985,41.86568302883333],[-87.63425252705137,41.865658357471766],[-87.6342628913957,41.865633722309916],[-87.63427818786913,41.8656180359812],[-87.63428862692895,41.865586540646426],[-87.63429807349443,41.865561899894715],[-87.6342966376501,41.865525200531295],[-87.6342936306996,41.86550803066555],[-87.63429018388541,41.86548742780966],[-87.6342973813717,41.865456928115066],[-87.63429638539444,41.86542366174105],[-87.63429113686051,41.865399946915595],[-87.6342798818792,41.865378281159586],[-87.63427455473584,41.865361783232714],[-87.63426970123793,41.86534561749863],[-87.63427554509434,41.86527087225168],[-87.63429780273103,41.865249739790556],[-87.63429145404075,41.86494956249152],[-87.63428540780505,41.86466206545509],[-87.63428216813364,41.86453819770876],[-87.63427149094333,41.864126495117574],[-87.63426978650301,41.864074014667885],[-87.63425901122393,41.86371513827703],[-87.63425184916404,41.863486279031704],[-87.63424514057911,41.86330341618686],[-87.634237750516,41.863095494173784],[-87.63420657441877,41.86309288945348],[-87.63420588729093,41.863115525343375],[-87.63419528528492,41.863118205054704],[-87.63418426878172,41.86311849474316],[-87.63417327111237,41.86311705566694],[-87.63416321746966,41.86311320739566],[-87.63415457729495,41.86310766629283],[-87.63414867210214,41.86310044040409],[-87.63414508733234,41.86309251513647],[-87.63414467672419,41.86308976838544],[-87.63413568251556,41.863072918810644],[-87.63412988585397,41.86305573194958],[-87.63412688294149,41.86303820534433],[-87.63412707727223,41.86302036889416],[-87.63413002086543,41.8630029059345],[-87.6341309873137,41.86299843868876],[-87.63414153811323,41.86295665309049],[-87.63415516296455,41.862925863210855],[-87.63416495185857,41.86291357367335],[-87.63418107931683,41.86290579585203],[-87.63418353395754,41.8628927756012],[-87.63418740301618,41.86287460476823],[-87.63418275934168,41.86283582766996],[-87.63420738966116,41.86276531313526],[-87.63421359376085,41.86274509832684],[-87.63422444297511,41.862716349729865],[-87.63422483905093,41.86267999080935],[-87.63424784910228,41.86267395631032],[-87.63423196908654,41.86261521499224],[-87.6342214262924,41.86261583687817],[-87.63421377927966,41.86260001088205],[-87.634225210301,41.86256166094569],[-87.63421623886171,41.8625427258832],[-87.63421002773072,41.862523149002804],[-87.63420705082622,41.86250323505754],[-87.63420635372792,41.862482978237665],[-87.63420682023519,41.862480593578674],[-87.63420683518171,41.86247922154388],[-87.63420334801523,41.86242190034344],[-87.63417865957861,41.86241351729576],[-87.63417328785548,41.86240113546216],[-87.6341827040856,41.86237923877268],[-87.63419757035294,41.862362534452735],[-87.63421726458627,41.86232387806506],[-87.63421057668599,41.86226382057014],[-87.6342294648636,41.86225534604106],[-87.63423371751438,41.86224576704715],[-87.63423518392622,41.86223584178249],[-87.63423393422875,41.86222587254182],[-87.63423304252917,41.8622234796149],[-87.63422423553955,41.86218945216884],[-87.63421230149112,41.86218973627492],[-87.63420811053906,41.86206896368782],[-87.63419375964322,41.86165756786254],[-87.63418082870649,41.86128770118528],[-87.63417805041341,41.861246191180065],[-87.63417206434518,41.86116552861083],[-87.63422394779447,41.86116104200988],[-87.63421654447437,41.86104197872608],[-87.63418309775267,41.8610356005524],[-87.63417246942488,41.86104409791757],[-87.63416329612794,41.86104371276251],[-87.634161365133,41.86096823407058],[-87.63489857425266,41.860985068829734],[-87.63490552584521,41.86123346593194],[-87.63491455929278,41.861540191039445],[-87.63491800944352,41.86164482290712],[-87.63493004878656,41.86205653390318],[-87.63494256904018,41.8624679184833],[-87.6349536655017,41.8628381031615],[-87.63495504912649,41.86287963209907],[-87.63496801043378,41.863290991858136],[-87.63498096798943,41.863702708316666],[-87.63499392925877,41.864114095457296],[-87.63500689095707,41.864525455127676],[-87.6350198489038,41.86493717149747],[-87.63503281056418,41.865348558549414],[-87.63503727887039,41.86548785641601],[-87.6350448510156,41.86576026927988],[-87.63507622033087,41.86688560241823],[-87.63508306895204,41.86709969551576],[-87.63503585927471,41.867136455841745],[-87.63503813868566,41.86718002093902],[-87.63503354592189,41.867180349765896],[-87.63441709884488,41.86718963507737]]]]},"properties":{":id":"row-sy2u-k3kk.ckvj",":version":"rv-y33a~7ne2~872s",":created_at":"2015-12-02T17:40:09.464Z",":updated_at":"2015-12-02T17:40:09.464Z","display":"0","name":"SOUTH BRANCH CHICAGO RIVER","edit_date1":"03-23-01","fid_":null,"shape_area":"452132.5944","shape_len":"5028.85893187"}},{"type":"Feature","geometry":{"type":"MultiPolygon","coordinates":[[[[-87.634161365133,41.86096823407058],[-87.63415912883168,41.86087697406832],[-87.6348952439008,41.86086943322636],[-87.63489554939152,41.86088521453514],[-87.63489857425266,41.860985068829734],[-87.634161365133,41.86096823407058]]]]},"properties":{":id":"row-bkzy~9fms-cvun",":version":"rv-muvd~5uew.7w62",":created_at":"2015-12-02T17:40:09.464Z",":updated_at":"2015-12-02T17:40:09.464Z","display":"1","name":"SOUTH BRANCH CHICAGO RIVER","edit_date1":"03-23-01","fid_":null,"shape_area":"7562.89845","shape_len":"476.878583713"}},{"type":"Feature","geometry":{"type":"MultiPolygon","coordinates":[[[[-87.63876378762698,41.8544017179362],[-87.63877533528694,41.85439629925976],[-87.63882440952959,41.85435576150068],[-87.63882434057925,41.85431802756803],[-87.63883941897815,41.854281428048196],[-87.63886395391172,41.85426305268035],[-87.63891249890249,41.85422731412976],[-87.63895543279234,41.854245411374656],[-87.63915157565799,41.8540973918828],[-87.63917865695768,41.85405397678182],[-87.63917762887505,41.85402345444307],[-87.63919173537657,41.85394771591166],[-87.63926545960149,41.853833945534426],[-87.63931166622747,41.853763203416634],[-87.63939459937994,41.853646387590224],[-87.63944849399284,41.85358428138734],[-87.63951911613073,41.85350273710677],[-87.63959814487501,41.85340749483664],[-87.6396427630735,41.853354608092744],[-87.63971427016358,41.8532318777468],[-87.6397846882944,41.85312837801428],[-87.63985532817296,41.853045104744766],[-87.63988903519584,41.85298287643185],[-87.63989746379374,41.85296714784705],[-87.6399373679041,41.85292586816885],[-87.64000415872236,41.85289987164092],[-87.64005587263347,41.85286964023895],[-87.64007264842104,41.852804922163436],[-87.64008172144132,41.852729509875196],[-87.6401188464994,41.85269062830303],[-87.64014783575287,41.85264036383557],[-87.64022075374224,41.852556774771436],[-87.64032343354555,41.85243972065821],[-87.64050043665223,41.852149568024146],[-87.64051211346403,41.852132130104295],[-87.64076016650394,41.85176452361085],[-87.64079564787625,41.851707794229455],[-87.6408100993951,41.851684911937156],[-87.64083014118518,41.851657590210735],[-87.64084719025297,41.851649103482664],[-87.64112827128827,41.85128169529118],[-87.64113433507512,41.85127418512948],[-87.64144576528724,41.85085586096414],[-87.64145183638911,41.8508476647647],[-87.64176180871472,41.85043822231787],[-87.64177402489348,41.850411539362774],[-87.6417782350698,41.850402316564804],[-87.6418098859173,41.850360300453815],[-87.64186315028336,41.85031534089135],[-87.64192770212831,41.85024130523623],[-87.64198000749217,41.850155862041845],[-87.64203788878237,41.85010818592983],[-87.64208704245857,41.850059771196385],[-87.64213901512443,41.850005198826004],[-87.64214132398543,41.85000211170944],[-87.64220526404458,41.84990301713609],[-87.64238523825095,41.84980599276811],[-87.64263812082294,41.849669971601635],[-87.64284576352078,41.84955972091382],[-87.64325133132945,41.84934503272849],[-87.64334960787602,41.849295183702324],[-87.64343502944061,41.849287134757766],[-87.64367918996977,41.84927932552697],[-87.64377611372281,41.84926654294263],[-87.64406672694143,41.849762583171085],[-87.6440404853634,41.849769286329845],[-87.64401503597728,41.84979108765709],[-87.64401395994958,41.84980584530796],[-87.64397490622396,41.84980937054373],[-87.6439498103605,41.84979824288033],[-87.64390947942684,41.84979424116028],[-87.64388918711097,41.849804053564846],[-87.64360559488611,41.84993580412445],[-87.64359330409104,41.84992851291485],[-87.64356790976642,41.849941752387586],[-87.64327081687064,41.85009328946209],[-87.6431612873128,41.85012454704986],[-87.64315268879221,41.850115219787426],[-87.64283810899762,41.85027148054422],[-87.64284116922268,41.85028384810268],[-87.6427148960292,41.850380510033325],[-87.64268851030862,41.85040057655059],[-87.64268740444611,41.850418078265385],[-87.64267561794445,41.850449209599624],[-87.64263268312486,41.85047227759693],[-87.64258975545387,41.850498089878776],[-87.64238689229369,41.850716410258],[-87.64237527894078,41.85073143380896],[-87.64230826338577,41.85081953292758],[-87.64225799975202,41.850885778744086],[-87.64201496751085,41.851214313100535],[-87.64200372053351,41.851236199461034],[-87.64199672807315,41.85124474689661],[-87.64179248103423,41.85150935348045],[-87.64178069768452,41.85153672510263],[-87.64166322643634,41.85166774206257],[-87.64166043297166,41.851671512314354],[-87.6414478771966,41.8519371110413],[-87.641367332656,41.8520474114535],[-87.64133192169375,41.85209763754407],[-87.64132771160887,41.85210343000215],[-87.6413075217231,41.852147902526625],[-87.64125706343988,41.852187746962976],[-87.64122159699365,41.85224310444401],[-87.64104975089904,41.852521626183275],[-87.64101193808764,41.85258350078361],[-87.64074282345773,41.85294686437555],[-87.64054168105991,41.85321870475732],[-87.64043126376617,41.853372403074495],[-87.64027567664465,41.85358927591886],[-87.6401261635748,41.85379762312531],[-87.63995146003064,41.85404080731294],[-87.6398233384999,41.854222526755564],[-87.63961645632915,41.85451526945683],[-87.63944818584025,41.854631569879935],[-87.6394204354423,41.854651984135785],[-87.63920350458054,41.85481121221037],[-87.63899626411772,41.854926233613874],[-87.63887998192145,41.8549869469983],[-87.63876378762698,41.8544017179362]]]]},"properties":{":id":"row-aauu~hwja-miia",":version":"rv-m9aa-izyq~pfqd",":created_at":"2015-12-02T17:40:09.464Z",":updated_at":"2015-12-02T17:40:09.464Z","display":"0","name":"SOUTH BRANCH CHICAGO RIVER","edit_date1":"03-23-01","fid_":null,"shape_area":"483077.74005","shape_len":"5290.14316405"}},{"type":"Feature","geometry":{"type":"MultiPolygon","coordinates":[[[[-87.66099649958011,41.846011037633524],[-87.66079011376623,41.845567317198764],[-87.66084168619324,41.845549095410874],[-87.66081703873549,41.845449471622885],[-87.66087911939975,41.84543712918062],[-87.66093544991777,41.84544467637873],[-87.66099677110246,41.84541723598932],[-87.66114713020504,41.84534059067836],[-87.66126054238151,41.8452874119563],[-87.66136205629297,41.84523139180602],[-87.66146359127345,41.84517334093496],[-87.66157545530359,41.845092682785705],[-87.66166175815448,41.84504173261287],[-87.66175727938442,41.84499015021084],[-87.66185136631988,41.84494234642431],[-87.66191876090612,41.84490259186867],[-87.66199862292136,41.8448533326734],[-87.66207006729897,41.84482287730369],[-87.6621474604883,41.844792099898825],[-87.66220942854645,41.84474479418256],[-87.66227199489461,41.84468237104575],[-87.66233855377885,41.84463473532716],[-87.6624293896708,41.844592400593434],[-87.66254915747267,41.844545404859865],[-87.66266054962443,41.844509693894736],[-87.6627590614366,41.84447733794834],[-87.6628310921118,41.844432834904225],[-87.66291741829475,41.844379468964945],[-87.66298752790775,41.84434318739416],[-87.66308095093255,41.84431661930502],[-87.66318873328672,41.844275068924276],[-87.66328235564342,41.844225861672086],[-87.66335856834887,41.84417795236401],[-87.66341907255457,41.844137141350025],[-87.66346370793295,41.84408010149225],[-87.66347758747985,41.84402666932949],[-87.66348329118019,41.84396188312231],[-87.66352306332749,41.84388903536889],[-87.6635795054119,41.84375558172768],[-87.66364399848646,41.84355392519386],[-87.6638185909816,41.84317623483699],[-87.66386466109894,41.843069477137526],[-87.66392950241074,41.84296453026402],[-87.66399055288352,41.84287468214757],[-87.66401288443471,41.842798988307045],[-87.66400900509485,41.84273104519689],[-87.66399629266455,41.842676085858685],[-87.66401898652089,41.84261139861962],[-87.6640879810383,41.842505789783935],[-87.66411932563804,41.84244559863474],[-87.66422580471267,41.84231037797299],[-87.66434897466073,41.84215467245341],[-87.66448639668745,41.841997677660515],[-87.6645736832802,41.841855154928226],[-87.66463964552213,41.84168813891925],[-87.66467281935682,41.841586108242836],[-87.66467668952289,41.841478747747395],[-87.66465416525486,41.84135100836656],[-87.66459074079054,41.84122851937552],[-87.6645103914177,41.841103187529455],[-87.66443228277481,41.840984729333535],[-87.6643875947963,41.840870938884606],[-87.66432468237811,41.840699385284395],[-87.66430641634024,41.840561050321504],[-87.66431079439761,41.84040498209467],[-87.66434511040406,41.84028136078579],[-87.6643450327513,41.84020073385787],[-87.6643423162901,41.840197287705756],[-87.66433181487724,41.840148515853194],[-87.66433134051276,41.84010597699774],[-87.66433144398182,41.84009604336459],[-87.66469061495359,41.83991907161027],[-87.66483864592152,41.83984583814515],[-87.6648385221954,41.83990003664262],[-87.66483389818136,41.839949406484585],[-87.66482908409006,41.84001351191793],[-87.66482111864885,41.84011947647813],[-87.6648102109134,41.84024016060804],[-87.66479510611431,41.84041501951768],[-87.66478383065736,41.840571020174245],[-87.6647821835512,41.84059880997962],[-87.66484335675375,41.840715440493234],[-87.66491896563281,41.84085550866642],[-87.66498957157019,41.840989702393706],[-87.66503681527435,41.841080181237565],[-87.66509460154471,41.84116970602054],[-87.66514615166193,41.84124135678114],[-87.66516163845758,41.841294273948755],[-87.66517963699198,41.84132799588078],[-87.66520468224732,41.84138988750204],[-87.66525318620732,41.84144746986368],[-87.66529560641844,41.84146898464076],[-87.66535866914785,41.841492320898496],[-87.66542383414905,41.84148995559813],[-87.66545805923147,41.841509035149734],[-87.66546448290482,41.841551251831326],[-87.66544784721196,41.841608784628505],[-87.6654122362576,41.84168061446082],[-87.66535205981847,41.8417749415885],[-87.66526112037549,41.841919529310054],[-87.66507946201185,41.8421380135899],[-87.66488142909094,41.84234644060057],[-87.6647720419271,41.84249673838993],[-87.66463917657825,41.84270247070516],[-87.66461904056098,41.842740087085],[-87.66462237798953,41.842772022292515],[-87.66466599707132,41.84281239736356],[-87.66475148837276,41.84284239586838],[-87.66487589867955,41.84287778003705],[-87.6649408723258,41.84289393767334],[-87.6650078450755,41.84289432739443],[-87.66505661681326,41.84292273987073],[-87.66510630361076,41.84295491728999],[-87.66516466605623,41.84298923079772],[-87.66524137758617,41.84302362356706],[-87.6653008611238,41.843038376933414],[-87.66536515307129,41.84303189019729],[-87.6654320509143,41.84303949664653],[-87.66550265254635,41.843086202893595],[-87.66553984661886,41.8431268970274],[-87.66556760955298,41.843192234681226],[-87.66556550988476,41.8432635733025],[-87.66556462535817,41.84334864030059],[-87.66556144313877,41.84343232180739],[-87.66556149031224,41.84351602208861],[-87.66556103633424,41.843605564733984],[-87.66556533546778,41.84372153481692],[-87.66556806365207,41.843812111337186],[-87.66557059210803,41.843921896531],[-87.66557109050468,41.8440045566089],[-87.66557408177762,41.844115716620905],[-87.66557625444057,41.8442138366261],[-87.66557956302007,41.844294482283885],[-87.6655846558394,41.84437648300216],[-87.66558643996325,41.844427262223306],[-87.6655799944728,41.84447181900883],[-87.66557524938437,41.8445328512518],[-87.66557534735749,41.844565782965596],[-87.66470750756218,41.845082143898594],[-87.66470523224618,41.84508213065289],[-87.66463744438587,41.84511398108144],[-87.66463689684721,41.84512426887495],[-87.66463291013253,41.845196968598074],[-87.66463334742622,41.84528890390861],[-87.66463403936784,41.845398678400414],[-87.66463337961434,41.84550432862816],[-87.66463828282859,41.84560795304608],[-87.66463970091371,41.845690289145395],[-87.66463728576956,41.84579181275577],[-87.66463317041428,41.84587686089752],[-87.66463307688916,41.845973952318],[-87.66463261098157,41.84606451022705],[-87.66464270633341,41.84615238536223],[-87.66465845319603,41.84622621533829],[-87.66468884754214,41.846303231599975],[-87.66470996860976,41.84634383240926],[-87.66481770545052,41.846835682265784],[-87.66481730548998,41.84687409959008],[-87.66480402494928,41.847578611224264],[-87.6647963716256,41.84862037020948],[-87.6647889551685,41.848673483356485],[-87.66479398884434,41.848718792946684],[-87.66476603471082,41.848759794127695],[-87.66475820881918,41.84880640099194],[-87.6647389775724,41.84884506543609],[-87.66466976260692,41.848840875416926],[-87.66466610681613,41.84883948200332],[-87.66461445579655,41.84881928539946],[-87.66458234520398,41.848776562406336],[-87.66457286698709,41.848717505628386],[-87.66456905108585,41.84864338838942],[-87.66456640993769,41.8485445796492],[-87.66456320222956,41.848454357142444],[-87.66455737186514,41.84835517307479],[-87.66455421076319,41.84826047769213],[-87.66454285364372,41.84816334707654],[-87.66453819546275,41.84808200752046],[-87.66454293359097,41.84797948210295],[-87.6645436232607,41.847913267116766],[-87.66454201399759,41.84780348733065],[-87.66454155171297,41.84771396686344],[-87.66454675632721,41.84761245953196],[-87.66454864557781,41.847519165675074],[-87.66453774698917,41.847420308832575],[-87.66451884213656,41.84733957237132],[-87.66450589425946,41.84726128554454],[-87.66451771880774,41.84718314297198],[-87.66451833674427,41.8471238156536],[-87.6645031958392,41.84703761258228],[-87.66449711088428,41.846959365715136],[-87.66449664962475,41.84687327556687],[-87.66448513492004,41.846787779671345],[-87.66448445930457,41.84672227022916],[-87.6644733822898,41.84664056395928],[-87.66445308755421,41.84656292039768],[-87.6644443502841,41.84647505316152],[-87.66442704048266,41.846375116134276],[-87.66440598562048,41.846282374697914],[-87.66438627164749,41.84619480027703],[-87.66436614152741,41.8461013781513],[-87.66434275334903,41.84601068130484],[-87.6643278988089,41.845897037249635],[-87.66431336663437,41.84579472886749],[-87.66430437137281,41.845689379161634],[-87.66429260256238,41.84558604405051],[-87.66428087295624,41.84547894952654],[-87.66427126861299,41.84538627475279],[-87.66426370747689,41.84527714630969],[-87.66425343750298,41.84520609243541],[-87.66423584239814,41.84513359631304],[-87.664205746551,41.84507030296499],[-87.66416452775958,41.84502135217848],[-87.66408790738646,41.84497804037961],[-87.66402942561028,41.84495505944017],[-87.66395628590725,41.84492993484905],[-87.66369590875382,41.844910908683794],[-87.66356891472745,41.844901249352844],[-87.66344698141656,41.84489197615195],[-87.6633928510893,41.84489166042717],[-87.6632741441576,41.844924914475776],[-87.66289168843647,41.84508632293322],[-87.66240137842914,41.84529578332217],[-87.66238867406797,41.845327954180334],[-87.66238210841922,41.84542945349848],[-87.66237411979336,41.84557932582912],[-87.66238164245541,41.845825310469806],[-87.66239286345166,41.84624423259318],[-87.66239403894953,41.8464829901634],[-87.66239177044243,41.84661228648381],[-87.66237474269053,41.846703433684276],[-87.66237379335192,41.84675213876733],[-87.6623951929252,41.84681162213822],[-87.66239652270475,41.846859983780455],[-87.66239813145823,41.84692379723968],[-87.66239139761967,41.84699922507153],[-87.66240027091406,41.847070298371534],[-87.66239913177564,41.84713716934816],[-87.66240840334588,41.847215791688996],[-87.66241468963113,41.847316679984964],[-87.66241355365312,41.84742540094951],[-87.66241515927574,41.84753518074599],[-87.66242010833666,41.84763057270408],[-87.6624333874811,41.847722582994066],[-87.66244277041211,41.84779055824498],[-87.66242220483998,41.84786900628593],[-87.66239992348169,41.84793954082968],[-87.66240085185461,41.84802631976018],[-87.6624062134879,41.84821570502951],[-87.66240692961564,41.84854057471238],[-87.66240773234031,41.84881500538805],[-87.6624181977572,41.84895502377025],[-87.66244166279583,41.84908035396642],[-87.66245823243956,41.84920874489178],[-87.66246929612542,41.849333673327116],[-87.66247032841784,41.849498334927965],[-87.66247046871516,41.84970621339938],[-87.66247640410322,41.84992853307388],[-87.66249283329381,41.85015470111063],[-87.66250981916917,41.85041893526094],[-87.66251079412949,41.85050126872627],[-87.66254472254253,41.85111823906743],[-87.6625042823038,41.851124506764876],[-87.66245750807703,41.851164382061846],[-87.66241228991743,41.851188816253],[-87.66238298213561,41.85118348583892],[-87.66235872835254,41.851179227761506],[-87.66227072172224,41.851125557297394],[-87.66219095281929,41.85107739597798],[-87.66214934415332,41.85101988014997],[-87.66212971740022,41.850920615382876],[-87.66211682966242,41.85079466091376],[-87.66211473731485,41.85064371444729],[-87.66211117514482,41.85049994934548],[-87.66211023706931,41.850372006507925],[-87.66212191827363,41.8503079139978],[-87.66212021618225,41.850207409282376],[-87.66210806254284,41.850095509694185],[-87.6620984400222,41.8499626861973],[-87.6621057023929,41.849840279792005],[-87.66212373789482,41.84973711871594],[-87.66212601465358,41.84965274604595],[-87.66212213320385,41.849539522661736],[-87.66211597973887,41.849425956686126],[-87.66211229652238,41.849297284274435],[-87.66211129677258,41.84917172855581],[-87.66211121883094,41.84904927923511],[-87.66211151703907,41.84893297925188],[-87.66211162126632,41.84878959228857],[-87.66211050388215,41.84867879998948],[-87.66210745473849,41.84853160751237],[-87.66210500011209,41.848415318873286],[-87.66210332703155,41.84831204259187],[-87.66210054969751,41.848226624988094],[-87.66209936723001,41.84811854911534],[-87.66209812416275,41.847974138881774],[-87.66209461658535,41.84782867259128],[-87.66208258530361,41.84770511056405],[-87.66207711740637,41.84757162522731],[-87.66206855590549,41.84742511401229],[-87.66206747389202,41.84730743379978],[-87.66206746770587,41.84717812420782],[-87.66207353918435,41.84707832349267],[-87.66207322116331,41.846978842186395],[-87.66205521603248,41.8468579894852],[-87.6620547782379,41.8468542272893],[-87.66204890166097,41.84675984525908],[-87.66203941937854,41.84661365795129],[-87.66203499366756,41.84651039299121],[-87.66203244625538,41.84640299517344],[-87.66202999896757,41.84628602046807],[-87.6620288811578,41.846171770349294],[-87.66202286809632,41.84604481313004],[-87.66202158245744,41.84595012860741],[-87.66202002054268,41.845836232640174],[-87.66201498872056,41.84574531329851],[-87.66199386582227,41.84565943167076],[-87.6619615539988,41.84559063626797],[-87.6619156990292,41.84554646003767],[-87.66185908397492,41.845562594631815],[-87.66176179614932,41.84561106576757],[-87.66163305836137,41.84568029161048],[-87.66148191419497,41.845744254473864],[-87.66133760109022,41.84581476100369],[-87.66120126785884,41.845908283514945],[-87.6611294492255,41.84597784186595],[-87.66107134990092,41.846005987246194],[-87.66101814705706,41.84600463301031],[-87.66099649958011,41.846011037633524]]]]},"properties":{":id":"row-3cf5~dyqn_kp4i",":version":"rv-ep9g_8w26-qg6m",":created_at":"2015-12-02T17:40:09.464Z",":updated_at":"2015-12-02T17:40:09.464Z","display":"0","name":"SOUTH BRANCH CHICAGO RIVER","edit_date1":"03-23-01","fid_":null,"shape_area":"1043463.09565","shape_len":"13069.9699402"}},{"type":"Feature","geometry":{"type":"MultiPolygon","coordinates":[[[[-87.64664404745454,41.84952247619325],[-87.6466349798772,41.84899758252398],[-87.64670347072729,41.84898358464685],[-87.64672009257886,41.84897372235734],[-87.6467281519212,41.84895113040271],[-87.64759745765082,41.84865961465084],[-87.64895281712211,41.84821934181929],[-87.64938708449628,41.84806413376818],[-87.64948381203837,41.84807294251206],[-87.64964407610185,41.84810202528619],[-87.65011663437889,41.84814224156745],[-87.65028357084606,41.84810651629218],[-87.65028364732636,41.84809932678746],[-87.6501437178816,41.848056287814074],[-87.65016841838317,41.84801837186088],[-87.65042775422143,41.84809469520114],[-87.65065011901726,41.848065144221486],[-87.6515811188495,41.84792317030765],[-87.65175525883674,41.84789676124563],[-87.65283982950011,41.84772240048039],[-87.65285201223533,41.8477434113624],[-87.65286258528828,41.84773968692634],[-87.65287110529552,41.847759990040835],[-87.65293132145524,41.8477473115478],[-87.65292745093657,41.847724648475904],[-87.65299498903798,41.847713714766066],[-87.65330111040532,41.847704550633644],[-87.65404609918052,41.847797818315065],[-87.65405644223648,41.847774196525485],[-87.65538037947243,41.84795765164898],[-87.65603274612324,41.84804657260635],[-87.65692116779078,41.847938607537195],[-87.65744402541418,41.847691628661956],[-87.65751785533385,41.847651228521364],[-87.65754196307529,41.8476273580965],[-87.65752876370227,41.84761561732644],[-87.65771345115776,41.847503859910155],[-87.65775234428394,41.84751539504114],[-87.65778895765884,41.8475238431787],[-87.65780037196889,41.847527340639594],[-87.65830527635194,41.847199982606064],[-87.65880808345564,41.84685167130199],[-87.65882564922964,41.84683906853616],[-87.65888341701002,41.8467972284917],[-87.65898398906539,41.84674394919442],[-87.6594929615455,41.84637750404627],[-87.6602081578752,41.84585307082351],[-87.66045857669944,41.84568439398213],[-87.66054101803188,41.84565537612596],[-87.66074475399951,41.84608914725732],[-87.66070977479468,41.84609991945776],[-87.66075130925974,41.846206146046725],[-87.66022257637813,41.84657832626529],[-87.65990074758889,41.84681897747448],[-87.65990094783282,41.846845378435354],[-87.65990310725203,41.84716441137975],[-87.6596510709985,41.84717871282365],[-87.65967952054915,41.84836064042892],[-87.65970330599684,41.84932950358016],[-87.65996253562633,41.849326550562225],[-87.65996288668971,41.84933857247664],[-87.65997498125661,41.8497602164986],[-87.65979000103326,41.84976667856377],[-87.65958989264723,41.84977373765287],[-87.65956196628456,41.84872046427846],[-87.65954629989923,41.84785250018891],[-87.65905442858612,41.84742117969197],[-87.65861072058108,41.847733477789745],[-87.65804710838772,41.848104400130744],[-87.65788027447476,41.84817614198982],[-87.6577059701781,41.84826018882971],[-87.6575003328467,41.84835708626813],[-87.65732071750088,41.84842257751458],[-87.65721131655783,41.84848436545026],[-87.65712294628834,41.84851128779274],[-87.65702766235965,41.848542971810936],[-87.65702718169888,41.8485886060174],[-87.65713865583282,41.84867502048133],[-87.6572399769032,41.84877062322441],[-87.6572570485639,41.84880502696035],[-87.65719155803437,41.84883757255009],[-87.65713291603004,41.84887153055286],[-87.65711351432788,41.848884122244705],[-87.65698279321576,41.848969796697695],[-87.6566904170202,41.848677183074834],[-87.65616951773137,41.848650430129894],[-87.65521997356082,41.84859167148786],[-87.6552133560356,41.848481505283885],[-87.65462008553055,41.84839877418321],[-87.65328377726426,41.84821488029628],[-87.65309843672561,41.848214139496996],[-87.65230180020679,41.84835999606826],[-87.65230648721212,41.84848214340106],[-87.65218147614364,41.848503026839815],[-87.65227763354983,41.849039742988325],[-87.65240254349003,41.84902849119811],[-87.65243573264308,41.84922833280579],[-87.65230489859802,41.84923749130975],[-87.65239365931303,41.84977967939697],[-87.65251801732524,41.84977561417028],[-87.65261944269776,41.850466725686],[-87.65264313609218,41.85056876042424],[-87.65247709732387,41.85056434592893],[-87.65231932024396,41.85055962342766],[-87.65230114719364,41.85049776985691],[-87.65229227709742,41.85042740936053],[-87.65227012452065,41.850353183023195],[-87.65224827414347,41.850291993700466],[-87.65224419237363,41.850244274282964],[-87.65224699942506,41.85019763853467],[-87.65220103118534,41.85016100450471],[-87.65211542002082,41.850145403335425],[-87.65204570533105,41.85014328838028],[-87.65199831027944,41.85011314969816],[-87.65198422667615,41.8500568088498],[-87.6519814846031,41.849969333062],[-87.65197235271606,41.849878718353374],[-87.6519746026242,41.84979467505818],[-87.65195928492743,41.8497266637831],[-87.6519287223146,41.84966679483676],[-87.65191192252603,41.849520563385596],[-87.65189352004506,41.84892014755847],[-87.65191843865557,41.84890657410573],[-87.65192724962975,41.848854485457146],[-87.6518873920052,41.84880589513557],[-87.65157350710773,41.84864006288509],[-87.65146627819665,41.84858316901982],[-87.65060216957109,41.84860512152728],[-87.6504519699083,41.848620008076665],[-87.65006585244198,41.84864789854735],[-87.64970122677224,41.84868071809839],[-87.64929598159321,41.84873662078027],[-87.64899802662502,41.84879864987044],[-87.64868362312481,41.848895569437154],[-87.64822424820603,41.849036574423984],[-87.64760842404021,41.84922052429704],[-87.64735422050107,41.84930956684043],[-87.64715209821091,41.849378008736075],[-87.64690480785534,41.84946228913011],[-87.64676721250981,41.849502959885854],[-87.64664404745454,41.84952247619325]]]]},"properties":{":id":"row-zbmc_xqnq-mnwz",":version":"rv-y2b4_49cw_nyiw",":created_at":"2015-12-02T17:40:09.464Z",":updated_at":"2015-12-02T17:40:09.464Z","display":"0","name":"SOUTH BRANCH CHICAGO RIVER","edit_date1":"03-23-01","fid_":null,"shape_area":"1034938.60945","shape_len":"12834.3030538"}},{"type":"Feature","geometry":{"type":"MultiPolygon","coordinates":[[[[-87.64476974667272,41.849704368179665],[-87.64447814215424,41.84917366378734],[-87.64468305449081,41.84914643464829],[-87.64627130861012,41.84906777368656],[-87.64630072796112,41.84906246115474],[-87.6463091210432,41.8495643813628],[-87.6462484873466,41.84957120860679],[-87.6462343059864,41.849610229451024],[-87.64622561127537,41.84965101200003],[-87.6458220053199,41.84968322925723],[-87.64582317925414,41.849744982096674],[-87.64578630530465,41.849760897601755],[-87.64564340922092,41.84977889514402],[-87.64558027956696,41.84976172227242],[-87.645483006757,41.84976251187863],[-87.64544913166918,41.84975544835098],[-87.64543323736305,41.84969736697695],[-87.64507845068603,41.84971206377148],[-87.644877163699,41.84969883753289],[-87.64476974667272,41.849704368179665]]]]},"properties":{":id":"row-ix2z~krnk.nd3d",":version":"rv-3kca.dhjq~m85y",":created_at":"2015-12-02T17:40:09.464Z",":updated_at":"2015-12-02T17:40:09.464Z","display":"0","name":"SOUTH BRANCH CHICAGO RIVER","edit_date1":"03-23-01","fid_":null,"shape_area":"99531.66125","shape_len":"1378.51162372"}},{"type":"Feature","geometry":{"type":"MultiPolygon","coordinates":[[[[-87.64377611372281,41.84926654294263],[-87.64447814215424,41.84917366378734],[-87.64476974667272,41.849704368179665],[-87.64417162333162,41.84973544074537],[-87.64406672694143,41.849762583171085],[-87.64377611372281,41.84926654294263]]]]},"properties":{":id":"row-nnk9_74a6.udeu",":version":"rv-qgu4.8iww~5i74",":created_at":"2015-12-02T17:40:09.464Z",":updated_at":"2015-12-02T17:40:09.464Z","display":"1","name":"SOUTH BRANCH CHICAGO RIVER","edit_date1":"03-23-01","fid_":null,"shape_area":"37348.31875","shape_len":"794.272842969"}},{"type":"Feature","geometry":{"type":"MultiPolygon","coordinates":[[[[-87.64630072796112,41.84906246115474],[-87.64639173472679,41.84904689670783],[-87.6466349798772,41.84899758252398],[-87.64664404745454,41.84952247619325],[-87.64655624773928,41.849536687885696],[-87.6463091210432,41.8495643813628],[-87.64630072796112,41.84906246115474]]]]},"properties":{":id":"row-i6wh.ntbe.t6cu",":version":"rv-89fk_72r3~37r9",":created_at":"2015-12-02T17:40:09.464Z",":updated_at":"2015-12-02T17:40:09.464Z","display":"1","name":"SOUTH BRANCH CHICAGO RIVER","edit_date1":"03-23-01","fid_":null,"shape_area":"17120.8653","shape_len":"560.877095056"}},{"type":"Feature","geometry":{"type":"MultiPolygon","coordinates":[[[[-87.66054101803188,41.84565537612596],[-87.66078138393999,41.8455703396527],[-87.66079011376623,41.845567317198764],[-87.66099649958011,41.846011037633524],[-87.66077605264023,41.84607936887045],[-87.66074475399951,41.84608914725732],[-87.66054101803188,41.84565537612596]]]]},"properties":{":id":"row-dcx2_9fy2~ncui",":version":"rv-e23w~wevm-x4cb",":created_at":"2015-12-02T17:40:09.464Z",":updated_at":"2015-12-02T17:40:09.464Z","display":"1","name":"SOUTH BRANCH CHICAGO RIVER","edit_date1":"03-23-01","fid_":null,"shape_area":"12601.09","shape_len":"488.072719505"}}]}
